LEMUR-2-SATCHMO         
1 41991U 17008AV  17073.88801544  .00001614  00000-0  74180-4 0  9992
2 41991  97.5079 135.4690 0008624 155.5019 204.6615 15.21799986  3517
